{"type": "FeatureCollection", "features": [ {"type": "Feature", "properties": {"norad_id": 37834, "name": "INTELSAT 18 (IS-18)", "group": "intelsat", "lat": 0.012747205819431461, "lon": -12.44092932658122, "alt_km": 35782.67587599846, "timestamp": "2025-12-23T05:02:11.691295+00:00", "meta": {"OBJECT_NAME": "INTELSAT 18 (IS-18)", "OBJECT_ID": "2011-056A", "EPOCH": "2025-12-22T19:09:27.496224", "MEAN_MOTION": 1.00271314, "ECCENTRICITY": 0.00017281, "INCLINATION": 0.0276, "RA_OF_ASC_NODE": 283.5388, "ARG_OF_PERICENTER": 2.7556, "MEAN_ANOMALY": 272.6648, "EPHEMERIS_TYPE": 0, "CLASSIFICATION_TYPE": "U", "NORAD_CAT_ID": 37834, "ELEMENT_SET_NO": 999, "REV_AT_EPOCH": 5204, "BSTAR": 0, "MEAN_MOTION_DOT": 7.4e-07, "MEAN_MOTION_DDOT": 0}, "tle": {"line1": "1 37834U 11056A   25356.79823491  .00000074  00000+0  00000+0 0  9991", "line2": "2 37834   0.0276 283.5388 0001728   2.7556 272.6648  1.00271314 52047"}}, "geometry": {"type": "Point", "coordinates": [-12.44092932658122, 0.012747205819431461]}}, {"type": "Feature", "properties": {"norad_id": 38098, "name": "INTELSAT 22 (IS-22)", "group": "intelsat", "lat": -0.025999519291022854, "lon": -120.3887540436549, "alt_km": 35782.00824457054, "timestamp": "2025-12-23T05:02:11.691306+00:00", "meta": {"OBJECT_NAME": "INTELSAT 22 (IS-22)", "OBJECT_ID": "2012-011A", "EPOCH": "2025-12-22T22:04:03.275904", "MEAN_MOTION": 1.00270342, "ECCENTRICITY": 0.00019425, "INCLINATION": 0.0255, "RA_OF_ASC_NODE": 36.1287, "ARG_OF_PERICENTER": 260.6462, "MEAN_ANOMALY": 198.0421, "EPHEMERIS_TYPE": 0, "CLASSIFICATION_TYPE": "U", "NORAD_CAT_ID": 38098, "ELEMENT_SET_NO": 999, "REV_AT_EPOCH": 542, "BSTAR": 0, "MEAN_MOTION_DOT": 0, "MEAN_MOTION_DDOT": 0}, "tle": {"line1": "1 38098U 12011A   25356.91948236  .00000000  00000+0  00000+0 0  9994", "line2": "2 38098   0.0255  36.1287 0001942 260.6462 198.0421  1.00270342  5426"}}, "geometry": {"type": "Point", "coordinates": [-120.3887540436549, -0.025999519291022854]}}, {"type": "Feature", "properties": {"norad_id": 38356, "name": "INTELSAT 19 (IS-19)", "group": "intelsat", "lat": -0.0017512547086423243, "lon": -26.422470163659863, "alt_km": 35781.04779700489, "timestamp": "2025-12-23T05:02:11.691319+00:00", "meta": {"OBJECT_NAME": "INTELSAT 19 (IS-19)", "OBJECT_ID": "2012-030A", "EPOCH": "2025-12-22T12:14:29.729184", "MEAN_MOTION": 1.00272136, "ECCENTRICITY": 0.00028333, "INCLINATION": 0.0186, "RA_OF_ASC_NODE": 312.8711, "ARG_OF_PERICENTER": 314.85, "MEAN_ANOMALY": 173.2179, "EPHEMERIS_TYPE": 0, "CLASSIFICATION_TYPE": "U", "NORAD_CAT_ID": 38356, "ELEMENT_SET_NO": 999, "REV_AT_EPOCH": 4868, "BSTAR": 0, "MEAN_MOTION_DOT": -3.5e-07, "MEAN_MOTION_DDOT": 0}, "tle": {"line1": "1 38356U 12030A   25356.51006631 -.00000035  00000+0  00000+0 0  9991", "line2": "2 38356   0.0186 312.8711 0002833 314.8500 173.2179  1.00272136 48680"}}, "geometry": {"type": "Point", "coordinates": [-26.422470163659863, -0.0017512547086423243]}}, {"type": "Feature", "properties": {"norad_id": 38740, "name": "INTELSAT 20 (IS-20)", "group": "intelsat", "lat": -0.010051434866409442, "lon": -123.93676368987587, "alt_km": 35778.1476503709, "timestamp": "2025-12-23T05:02:11.691330+00:00", "meta": {"OBJECT_NAME": "INTELSAT 20 (IS-20)", "OBJECT_ID": "2012-043A", "EPOCH": "2025-12-22T22:03:03.372192", "MEAN_MOTION": 1.00272008, "ECCENTRICITY": 0.00030993, "INCLINATION": 0.0099, "RA_OF_ASC_NODE": 57.7411, "ARG_OF_PERICENTER": 125.5263, "MEAN_ANOMALY": 307.7027, "EPHEMERIS_TYPE": 0, "CLASSIFICATION_TYPE": "U", "NORAD_CAT_ID": 38740, "ELEMENT_SET_NO": 999, "REV_AT_EPOCH": 4898, "BSTAR": 0, "MEAN_MOTION_DOT": -3e-08, "MEAN_MOTION_DDOT": 0}, "tle": {"line1": "1 38740U 12043A   25356.91878903 -.00000003  00000+0  00000+0 0  9990", "line2": "2 38740   0.0099  57.7411 0003099 125.5263 307.7027  1.00272008 48987"}}, "geometry": {"type": "Point", "coordinates": [-123.93676368987587, -0.010051434866409442]}}, {"type": "Feature", "properties": {"norad_id": 38749, "name": "INTELSAT 21 (IS-21)", "group": "intelsat", "lat": 0.01790100840804365, "lon": 109.53838892478106, "alt_km": 35792.25560883325, "timestamp": "2025-12-23T05:02:11.691342+00:00", "meta": {"OBJECT_NAME": "INTELSAT 21 (IS-21)", "OBJECT_ID": "2012-045A", "EPOCH": "2025-12-22T21:26:59.326080", "MEAN_MOTION": 1.0027117, "ECCENTRICITY": 0.00015376, "INCLINATION": 0.0185, "RA_OF_ASC_NODE": 298.7128, "ARG_OF_PERICENTER": 327.1115, "MEAN_ANOMALY": 89.6157, "EPHEMERIS_TYPE": 0, "CLASSIFICATION_TYPE": "U", "NORAD_CAT_ID": 38749, "ELEMENT_SET_NO": 999, "REV_AT_EPOCH": 4875, "BSTAR": 0, "MEAN_MOTION_DOT": -2.63e-06, "MEAN_MOTION_DDOT": 0}, "tle": {"line1": "1 38749U 12045A   25356.89374220 -.00000263  00000+0  00000+0 0  9999", "line2": "2 38749   0.0185 298.7128 0001537 327.1115  89.6157  1.00271170 48759"}}, "geometry": {"type": "Point", "coordinates": [109.53838892478106, 0.01790100840804365]}}, {"type": "Feature", "properties": {"norad_id": 38867, "name": "INTELSAT 23 (IS-23)", "group": "intelsat", "lat": 0.029750646375058268, "lon": 114.55151231127662, "alt_km": 35789.99969770352, "timestamp": "2025-12-23T05:02:11.691354+00:00", "meta": {"OBJECT_NAME": "INTELSAT 23 (IS-23)", "OBJECT_ID": "2012-057A", "EPOCH": "2025-12-22T18:02:56.365728", "MEAN_MOTION": 1.0026864, "ECCENTRICITY": 7.149e-05, "INCLINATION": 0.0218, "RA_OF_ASC_NODE": 75.9617, "ARG_OF_PERICENTER": 227.1276, "MEAN_ANOMALY": 6.208, "EPHEMERIS_TYPE": 0, "CLASSIFICATION_TYPE": "U", "NORAD_CAT_ID": 38867, "ELEMENT_SET_NO": 999, "REV_AT_EPOCH": 4818, "BSTAR": 0, "MEAN_MOTION_DOT": -2.63e-06, "MEAN_MOTION_DDOT": 0}, "tle": {"line1": "1 38867U 12057A   25356.75204127 -.00000263  00000+0  00000+0 0  9996", "line2": "2 38867   0.0218  75.9617 0000714 227.1276   6.2080  1.00268640 48183"}}, "geometry": {"type": "Point", "coordinates": [114.55151231127662, 0.029750646375058268]}}, {"type": "Feature", "properties": {"norad_id": 39360, "name": "FM-6", "group": "intelsat", "lat": 0.008416066653186548, "lon": 51.439924951808, "alt_km": 35788.832733861505, "timestamp": "2025-12-23T05:02:11.691365+00:00", "meta": {"OBJECT_NAME": "FM-6", "OBJECT_ID": "2013-058A", "EPOCH": "2025-12-22T10:54:06.126048", "MEAN_MOTION": 1.00295486, "ECCENTRICITY": 0.00025049, "INCLINATION": 0.0105, "RA_OF_ASC_NODE": 56.8599, "ARG_OF_PERICENTER": 147.9876, "MEAN_ANOMALY": 293.7792, "EPHEMERIS_TYPE": 0, "CLASSIFICATION_TYPE": "U", "NORAD_CAT_ID": 39360, "ELEMENT_SET_NO": 999, "REV_AT_EPOCH": 4430, "BSTAR": 0, "MEAN_MOTION_DOT": 1e-08, "MEAN_MOTION_DDOT": 0}, "tle": {"line1": "1 39360U 13058A   25356.45423757  .00000001  00000+0  00000+0 0  9995", "line2": "2 39360   0.0105  56.8599 0002504 147.9876 293.7792  1.00295486 44309"}}, "geometry": {"type": "Point", "coordinates": [51.439924951808, 0.008416066653186548]}}, {"type": "Feature", "properties": {"norad_id": 40271, "name": "INTELSAT 30 (IS-30)", "group": "intelsat", "lat": 0.029817960876706955, "lon": 72.49280087805985, "alt_km": 35779.67976798377, "timestamp": "2025-12-23T05:02:11.691377+00:00", "meta": {"OBJECT_NAME": "INTELSAT 30 (IS-30)", "OBJECT_ID": "2014-062A", "EPOCH": "2025-12-22T11:00:05.552640", "MEAN_MOTION": 1.00272577, "ECCENTRICITY": 0.00015792, "INCLINATION": 0.0108, "RA_OF_ASC_NODE": 21.0351, "ARG_OF_PERICENTER": 73.4094, "MEAN_ANOMALY": 66.7935, "EPHEMERIS_TYPE": 0, "CLASSIFICATION_TYPE": "U", "NORAD_CAT_ID": 40271, "ELEMENT_SET_NO": 999, "REV_AT_EPOCH": 502, "BSTAR": 0, "MEAN_MOTION_DOT": -1.29e-06, "MEAN_MOTION_DDOT": 0}, "tle": {"line1": "1 40271U 14062A   25356.45839760 -.00000129  00000+0  00000+0 0  9991", "line2": "2 40271   0.0108  21.0351 0001579  73.4094  66.7935  1.00272577  5020"}}, "geometry": {"type": "Point", "coordinates": [72.49280087805985, 0.029817960876706955]}}, {"type": "Feature", "properties": {"norad_id": 40333, "name": "DIRECTV 14", "group": "intelsat", "lat": 0.027227298204910075, "lon": 68.32653214913111, "alt_km": 35785.96267709334, "timestamp": "2025-12-23T05:02:11.691389+00:00", "meta": {"OBJECT_NAME": "DIRECTV 14", "OBJECT_ID": "2014-078B", "EPOCH": "2025-12-22T14:24:17.301600", "MEAN_MOTION": 1.00272804, "ECCENTRICITY": 3.288e-05, "INCLINATION": 0.01, "RA_OF_ASC_NODE": 325.5744, "ARG_OF_PERICENTER": 199.3396, "MEAN_ANOMALY": 43.3433, "EPHEMERIS_TYPE": 0, "CLASSIFICATION_TYPE": "U", "NORAD_CAT_ID": 40333, "ELEMENT_SET_NO": 999, "REV_AT_EPOCH": 4027, "BSTAR": 0, "MEAN_MOTION_DOT": -1.04e-06, "MEAN_MOTION_DDOT": 0}, "tle": {"line1": "1 40333U 14078B   25356.60020025 -.00000104  00000+0  00000+0 0  9993", "line2": "2 40333   0.0100 325.5744 0000328 199.3396  43.3433  1.00272804 40276"}}, "geometry": {"type": "Point", "coordinates": [68.32653214913111, 0.027227298204910075]}}, {"type": "Feature", "properties": {"norad_id": 40663, "name": "DIRECTV 15", "group": "intelsat", "lat": 0.03662844711693894, "lon": 64.67152849202859, "alt_km": 35786.60427295621, "timestamp": "2025-12-23T05:02:11.691400+00:00", "meta": {"OBJECT_NAME": "DIRECTV 15", "OBJECT_ID": "2015-026A", "EPOCH": "2025-12-22T10:57:50.767776", "MEAN_MOTION": 1.00273682, "ECCENTRICITY": 4.03e-05, "INCLINATION": 0.0228, "RA_OF_ASC_NODE": 18.0826, "ARG_OF_PERICENTER": 174.8606, "MEAN_ANOMALY": 319.9041, "EPHEMERIS_TYPE": 0, "CLASSIFICATION_TYPE": "U", "NORAD_CAT_ID": 40663, "ELEMENT_SET_NO": 999, "REV_AT_EPOCH": 3869, "BSTAR": 0, "MEAN_MOTION_DOT": 0, "MEAN_MOTION_DDOT": 0}, "tle": {"line1": "1 40663U 15026A   25356.45683759  .00000000  00000+0  00000+0 0  9999", "line2": "2 40663   0.0228  18.0826 0000403 174.8606 319.9041  1.00273682 38699"}}, "geometry": {"type": "Point", "coordinates": [64.67152849202859, 0.03662844711693894]}}]}